{"fetched_at":"2026-05-05T10:03:19Z","count":5946,"tles":[{"name":"STARLINK-30465","line1":"1 57891U 23146A   26124.37447890 -.00004902  00000+0 -16865-3 0  9998","line2":"2 57891  43.0067 359.6327 0002121 257.6601 102.4013 15.27592736145570","category":"Starlink"},{"name":"CZ-6A DEB","line1":"1 60976U 24140MB  24249.53407803  .00041896  00000+0  15142-1 0  9991","line2":"2 60976  88.9761 347.5781 0065611  35.4395 325.1135 14.32080102  2533","category":"Other"},{"name":"STARLINK-36258","line1":"1 67104U 25299C   26124.52861301  .00015060  00000+0  55546-3 0  9995","line2":"2 67104  42.9979 213.8501 0002247 277.6180  82.4416 15.27591534 21657","category":"Starlink"},{"name":"SL-6 R/B(2)","line1":"1 16854U 86050D   26104.46331933  .00000721  00000+0  00000+0 0  9996","line2":"2 16854  65.6493 288.1376 6615056   2.6261 161.4127  2.02801844294657","category":"Other"},{"name":"STARLINK-35031","line1":"1 65404U 25192A   26124.58335648  .00045346  00000+0  13474-2 0  9997","line2":"2 65404  53.1587 343.1364 0001653  85.8103 340.3545 15.34347578  5875","category":"Starlink"},{"name":"STARLINK-1972","line1":"1 47627U 21012H   26124.09891344  .00060733  00000+0  83632-3 0  9998","line2":"2 47627  53.0478  57.9887 0006419  73.5458 286.6258 15.56669495290061","category":"Starlink"},{"name":"STARLINK-30234","line1":"1 57297U 23096H   23361.88782131  .00003872  00000+0  30152-3 0  9996","line2":"2 57297  43.0025 265.4914 0001227 247.3075 112.7638 15.02538974 26850","category":"Starlink"},{"name":"SHIYAN-27 OBJECT B","line1":"1 63600U 25078B   26124.64245747 -.00000015  00000+0  40971-4 0  9992","line2":"2 63600  99.6924 132.4927 0001201  91.5022 268.6254 13.57221038 51626","category":"Other"},{"name":"UNKNOWN","line1":"1 81845U          26104.28851878  .00001335  00000+0  14976-3 0  9997","line2":"2 81845  97.6785 291.9726 0085152 261.3969 278.3208 14.85895905667714","category":"Other"},{"name":"STARLINK-35463","line1":"1 66463U 25262H   26124.32169120  .00013787  00000+0  50946-3 0  9993","line2":"2 66463  42.9980 342.0754 0001041  66.1471 293.9490 15.27588238 27414","category":"Starlink"},{"name":"FENGYUN 1C DEB","line1":"1 32441U 99025DBD 26089.46332375  .00002689  00000+0  11630-2 0  9994","line2":"2 32441  97.7817 164.8991 0247695 355.3743   4.5143 14.09938431960954","category":"Weather"},{"name":"STARLINK-2248","line1":"1 48591U 21041AQ  23362.52249453  .00000798  00000+0  72496-4 0  9990","line2":"2 48591  53.0536 132.8879 0001481  82.1427 277.9730 15.06399421144696","category":"Starlink"},{"name":"STARLINK-30586","line1":"1 58084U 23160K   26124.45091912  .00002625  00000+0  10485-3 0  9998","line2":"2 58084  43.0023 126.3884 0001182 267.4483  92.6234 15.27582878141439","category":"Starlink"},{"name":"ORBCOMM FM04","line1":"1 25159U 98007C   26124.77724374  .00001105  00000+0  42447-3 0  9992","line2":"2 25159 107.9621  80.0858 0039609  40.4442 319.9631 14.35654058470367","category":"Other"},{"name":"ONEWEB-0526","line1":"1 54144U 22138AH  26124.52412098  .00001001  00000+0  24667-2 0  9998","line2":"2 54144  87.9152 313.6694 0001749  87.3369 272.7964 13.19734702171048","category":"Other"},{"name":"STARLINK-11233 [DTC]","line1":"1 61061U 24164M   26124.12359314 -.00000469  00000+0  98997-6 0  9991","line2":"2 61061  53.1574  38.1256 0001554 131.9120 228.2030 15.69710659 94120","category":"Starlink"},{"name":"STARLINK-35903","line1":"1 67168U 25303F   26123.98263634  .00028245  00000+0  10310-2 0  9993","line2":"2 67168  43.0038 358.2692 0001445 274.1637  85.9050 15.27612649 21190","category":"Starlink"},{"name":"COSMOS 2251 DEB","line1":"1 35888U 93036AUB 26104.34042151  .00000776  00000+0  16943-3 0  9991","line2":"2 35888  74.0301 123.1948 0050943 224.8156 134.8890 14.58837235880618","category":"Other"},{"name":"STARLINK-3569","line1":"1 51811U 22017AV  26124.26987094  .00000181  00000+0  29465-4 0  9997","line2":"2 51811  53.2176  89.6114 0001384  89.2334 270.8816 15.08831376232355","category":"Starlink"},{"name":"STARLINK-31256","line1":"1 59161U 24044K   26124.36303161  .00006959  00000+0  26171-3 0  9992","line2":"2 59161  42.9983 152.3087 0001418 279.3030  80.7661 15.27638659122110","category":"Starlink"},{"name":"STARLINK-11678 [DTC]","line1":"1 64326U 25124K   26124.52129431  .00292028  00000+0  21916-2 0  9990","line2":"2 64326  43.0011  52.8221 0000354 315.7061  44.3778 15.70933449 51618","category":"Starlink"},{"name":"FENGYUN 1C DEB","line1":"1 30381U 99025ACU 26104.06798323  .00000953  00000+0  52196-3 0  9993","line2":"2 30381  98.7972 142.1266 0055882  88.5093 272.2480 14.13468143938945","category":"Weather"},{"name":"STARLINK-1452","line1":"1 45669U 20035N   26124.29045747  .00082769  00000+0  12884-2 0  9999","line2":"2 45669  53.0271 115.1332 0001395  18.4869 341.6191 15.53207211327981","category":"Starlink"},{"name":"ONEWEB-0576","line1":"1 56065U 23043V   26124.59135178  .00000043  00000+0  78644-4 0  9997","line2":"2 56065  87.9095 237.4310 0002110 107.0469 253.0893 13.16594528153220","category":"Other"},{"name":"FREGAT R/B","line1":"1 47720U 21016B   26104.13760096 -.00000015  00000+0  00000+0 0  9990","line2":"2 47720  63.2434  59.3403 7383812 267.3345  14.8274  1.98979341 37164","category":"Other"},{"name":"STARLINK-6340","line1":"1 57361U 23099AK  26124.45289472  .00001482  00000+0  63374-4 0  9992","line2":"2 57361  43.0011 287.0903 0001573 259.2592 100.8083 15.27577554154729","category":"Starlink"},{"name":"STARLINK-11451 [DTC]","line1":"1 62561U 25006H   26124.38141078  .00197546  00000+0  15060-2 0  9995","line2":"2 62561  42.9980 163.9869 0000600 200.1383 159.9461 15.70851274 75365","category":"Starlink"},{"name":"STARLINK-36960","line1":"1 68225U 26053U   26124.55814545  .00018250  00000+0  56623-3 0  9991","line2":"2 68225  97.2827   0.3555 0001978  95.1085 265.0384 15.33445511  8762","category":"Starlink"},{"name":"TDRS 12","line1":"1 39504U 14004A   26124.63784513 -.00000263  00000+0  00000+0 0  9992","line2":"2 39504   3.9355  18.3506 0001300 229.8007 162.9959  1.00267460 43849","category":"Other"},{"name":"KAI-1 (RS26S)","line1":"1 53378U 22096J   24228.06623961  .01972063  41844-2  15090-2 0  9994","line2":"2 53378  97.3908 151.6448 0008407 161.8615 198.2973 16.16088910113554","category":"Other"},{"name":"STARLINK-32182","line1":"1 60319U 24133U   26124.49031828 -.00001868  00000+0 -51014-4 0  9991","line2":"2 60319  53.1626  37.8752 0001256  85.5735 274.5409 15.30174764100182","category":"Starlink"},{"name":"STARLINK-34829","line1":"1 65470U 25195N   26124.38635078  .00017751  00000+0  60999-3 0  9995","line2":"2 65470  53.1612 359.2932 0001209  82.2740 277.8398 15.30200874 38522","category":"Starlink"},{"name":"STARLINK-33880","line1":"1 63686U 25085Y   26124.24199782  .00026653  00000+0  97430-3 0  9993","line2":"2 63686  43.0015  77.3834 0001190 269.6586  90.4129 15.27589312 57470","category":"Starlink"},{"name":"UNKNOWN","line1":"1 82642U          26104.48517524  .00000965  00000+0  54992-3 0  9992","line2":"2 82642  98.9726  19.2358 0133800 253.9044 104.7359 14.07781799633403","category":"Other"},{"name":"STARLINK-35935","line1":"1 66527U 25265M   26124.60987252 -.00001881  00000+0 -58880-4 0  9992","line2":"2 66527  43.0011 322.3047 0001196 241.9172 118.1559 15.27558838 25662","category":"Starlink"},{"name":"STARLINK-2725","line1":"1 48681U 21044AV  26124.43154328 -.00007335  00000+0 -23574-3 0  9996","line2":"2 48681  53.1564 176.3560 0000926  84.4372 275.6734 15.30203720272891","category":"Starlink"},{"name":"COSMOS 2570","line1":"1 58148U 23165A   26124.57736492 -.00000040  00000+0  25213-4 0  9992","line2":"2 58148  67.1512  35.4193 0006320 279.7140  80.3230 13.96673316128547","category":"Other"},{"name":"GLOBALSTAR M040","line1":"1 25622U 99004B   26105.22832450 -.00000094  00000+0  54923-4 0  9999","line2":"2 25622  51.9916 218.3031 0000402  16.2972 351.6445 12.62032385253393","category":"Other"},{"name":"CNUSAIL-1","line1":"1 43133U 18004Y   24082.99093794  .12081440  24922-5  34225-3 0  9996","line2":"2 43133  97.2664 174.2977 0012622 265.0607  94.9254 16.44332482345840","category":"Other"},{"name":"2024-173D","line1":"1 61230U 24173D   26124.64492009  .00015683  00000+0  56078-3 0  9999","line2":"2 61230  97.3561 204.3553 0010524  60.5843 299.6446 15.28841362 89800","category":"Other"},{"name":"LVM3 R/B","line1":"1 67233U 25309B   26023.24102016  .00010539  00000+0  49862-3 0  9998","line2":"2 67233  52.9300 274.4476 0012114  77.2663 282.9683 15.19858966  4589","category":"Other"},{"name":"COSMOS 2251 DEB","line1":"1 36052U 93036AXP 23179.10277400  .00009053  00000+0  19673-2 0  9994","line2":"2 36052  74.0292 326.5830 0009392 258.1651 101.8460 14.58132409733303","category":"Other"},{"name":"STARLINK-3577","line1":"1 51884U 22022AJ  26124.22018498  .00000537  00000+0  51849-4 0  9998","line2":"2 51884  53.2169 109.8326 0001591  82.9827 277.1346 15.08839978231717","category":"Starlink"},{"name":"2024-048A","line1":"1 59228U 24048A   24086.00000000 -.00001539  00000+0  00000+0 0  9991","line2":"2 59228  27.6104   4.8377 9384788 141.5911 234.7528  0.21026503   387","category":"Other"},{"name":"STARLINK-34292","line1":"1 64390U 25127W   26124.58620285  .00024536  00000+0  89788-3 0  9992","line2":"2 64390  43.0005 224.2873 0001972 286.3392  73.7242 15.27589786 51016","category":"Starlink"},{"name":"FENGYUN 1C DEB","line1":"1 30476U 99025AGP 26103.91217197  .00001395  00000+0  65089-3 0  9992","line2":"2 30476  99.1119 150.0745 0043253 311.6922 226.8540 14.21679492985807","category":"Weather"},{"name":"STARLINK-1506","line1":"1 45747U 20038T   26124.49102348  .00008099  00000+0  30685-3 0  9996","line2":"2 45747  53.0773 303.9421 0004105  81.8492 278.2972 15.27787664325211","category":"Starlink"},{"name":"STARLINK-4774","line1":"1 56138U 23046AY  26124.24026447  .00000685  00000+0  34425-4 0  9992","line2":"2 56138  43.0020 193.4510 0001545 269.3243  90.7431 15.27577542170693","category":"Starlink"}]}